{
 "generated_at": "2026-06-27T07:50:14Z",
 "sources": [
  {
   "name": "CelesTrak",
   "url": "https://celestrak.org/NORAD/elements/",
   "license": "frei verfügbar; Attribution. Ursprünglich USSPACECOM/Space-Track."
  },
  {
   "name": "GCAT (J. McDowell, planet4589.org)",
   "url": "https://planet4589.org/space/gcat/",
   "license": "CC-BY 4.0"
  }
 ],
 "satellites": [
  {
   "norad": 29228,
   "name": "RESURS-DK 1",
   "intl": "2006-021A",
   "group": "resource",
   "gcat": {
    "class": null,
    "category": null,
    "owner": null,
    "state": null
   },
   "omm": {
    "OBJECT_NAME": "RESURS-DK 1",
    "OBJECT_ID": "2006-021A",
    "EPOCH": "2026-06-26T19:38:41.248608",
    "MEAN_MOTION": 15.13254935,
    "ECCENTRICITY": 0.00067573,
    "INCLINATION": 69.9337,
    "RA_OF_ASC_NODE": 314.6217,
    "ARG_OF_PERICENTER": 287.2968,
    "MEAN_ANOMALY": 72.7458,
    "EPHEMERIS_TYPE": 0,
    "CLASSIFICATION_TYPE": "U",
    "NORAD_CAT_ID": 29228,
    "ELEMENT_SET_NO": 999,
    "REV_AT_EPOCH": 10403,
    "BSTAR": 0.00014057319,
    "MEAN_MOTION_DOT": 0.00002398,
    "MEAN_MOTION_DDOT": 0
   }
  },
  {
   "norad": 59371,
   "name": "RESURS-P 4",
   "intl": "2024-061A",
   "group": "resource",
   "gcat": {
    "class": "C",
    "category": "IMG",
    "owner": "TSSKBP?",
    "state": "RU"
   },
   "omm": {
    "OBJECT_NAME": "RESURS-P 4",
    "OBJECT_ID": "2024-061A",
    "EPOCH": "2026-06-26T23:51:49.866624",
    "MEAN_MOTION": 15.32184414,
    "ECCENTRICITY": 0.00027899,
    "INCLINATION": 97.2751,
    "RA_OF_ASC_NODE": 125.7223,
    "ARG_OF_PERICENTER": 115.447,
    "MEAN_ANOMALY": 244.7061,
    "EPHEMERIS_TYPE": 0,
    "CLASSIFICATION_TYPE": "U",
    "NORAD_CAT_ID": 59371,
    "ELEMENT_SET_NO": 999,
    "REV_AT_EPOCH": 12526,
    "BSTAR": 0.00010709904,
    "MEAN_MOTION_DOT": 0.00003251,
    "MEAN_MOTION_DDOT": 0
   }
  },
  {
   "norad": 44233,
   "name": "RISAT-2B",
   "intl": "2019-028A",
   "group": "sar",
   "gcat": {
    "class": "C",
    "category": "IMG-R",
    "owner": "ISRO",
    "state": "IN"
   },
   "omm": {
    "OBJECT_NAME": "RISAT-2B",
    "OBJECT_ID": "2019-028A",
    "EPOCH": "2026-06-26T17:26:29.579136",
    "MEAN_MOTION": 15.01710889,
    "ECCENTRICITY": 0.00037798,
    "INCLINATION": 36.9978,
    "RA_OF_ASC_NODE": 297.5118,
    "ARG_OF_PERICENTER": 121.1465,
    "MEAN_ANOMALY": 238.9649,
    "EPHEMERIS_TYPE": 0,
    "CLASSIFICATION_TYPE": "U",
    "NORAD_CAT_ID": 44233,
    "ELEMENT_SET_NO": 999,
    "REV_AT_EPOCH": 38926,
    "BSTAR": 0.00026209792,
    "MEAN_MOTION_DOT": 0.00003395,
    "MEAN_MOTION_DDOT": 0
   }
  },
  {
   "norad": 44857,
   "name": "RISAT-2BR1",
   "intl": "2019-089F",
   "group": "sar",
   "gcat": {
    "class": "C",
    "category": "IMG-R",
    "owner": "ISRO",
    "state": "IN"
   },
   "omm": {
    "OBJECT_NAME": "RISAT-2BR1",
    "OBJECT_ID": "2019-089F",
    "EPOCH": "2026-06-26T22:16:31.164672",
    "MEAN_MOTION": 15.0170877,
    "ECCENTRICITY": 0.00130417,
    "INCLINATION": 36.9609,
    "RA_OF_ASC_NODE": 53.811,
    "ARG_OF_PERICENTER": 255.1121,
    "MEAN_ANOMALY": 104.8177,
    "EPHEMERIS_TYPE": 0,
    "CLASSIFICATION_TYPE": "U",
    "NORAD_CAT_ID": 44857,
    "ELEMENT_SET_NO": 999,
    "REV_AT_EPOCH": 35866,
    "BSTAR": 0.00030630966,
    "MEAN_MOTION_DOT": 0.00003989,
    "MEAN_MOTION_DDOT": 0
   }
  },
  {
   "norad": 46905,
   "name": "RISAT-2BR2",
   "intl": "2020-081A",
   "group": "sar",
   "gcat": {
    "class": "C",
    "category": "IMG-R",
    "owner": "ISRO",
    "state": "IN"
   },
   "omm": {
    "OBJECT_NAME": "RISAT-2BR2",
    "OBJECT_ID": "2020-081A",
    "EPOCH": "2026-06-26T23:45:16.179840",
    "MEAN_MOTION": 15.01662591,
    "ECCENTRICITY": 0.0012174,
    "INCLINATION": 36.8968,
    "RA_OF_ASC_NODE": 166.0622,
    "ARG_OF_PERICENTER": 243.1986,
    "MEAN_ANOMALY": 116.7511,
    "EPHEMERIS_TYPE": 0,
    "CLASSIFICATION_TYPE": "U",
    "NORAD_CAT_ID": 46905,
    "ELEMENT_SET_NO": 999,
    "REV_AT_EPOCH": 30894,
    "BSTAR": 0.00020087311,
    "MEAN_MOTION_DOT": 0.00002585,
    "MEAN_MOTION_DDOT": 0
   }
  },
  {
   "norad": 43641,
   "name": "SAOCOM 1A",
   "intl": "2018-076A",
   "group": "sar",
   "gcat": {
    "class": "C",
    "category": "IMG-R",
    "owner": "CONAE",
    "state": "AR"
   },
   "omm": {
    "OBJECT_NAME": "SAOCOM 1A",
    "OBJECT_ID": "2018-076A",
    "EPOCH": "2026-06-26T23:49:20.351424",
    "MEAN_MOTION": 14.82154636,
    "ECCENTRICITY": 0.00015495,
    "INCLINATION": 97.8885,
    "RA_OF_ASC_NODE": 4.5988,
    "ARG_OF_PERICENTER": 79.5044,
    "MEAN_ANOMALY": 280.6344,
    "EPHEMERIS_TYPE": 0,
    "CLASSIFICATION_TYPE": "U",
    "NORAD_CAT_ID": 43641,
    "ELEMENT_SET_NO": 999,
    "REV_AT_EPOCH": 41755,
    "BSTAR": 0.000048057255,
    "MEAN_MOTION_DOT": 0.0000033,
    "MEAN_MOTION_DDOT": 0
   }
  },
  {
   "norad": 46265,
   "name": "SAOCOM 1B",
   "intl": "2020-059A",
   "group": "sar",
   "gcat": {
    "class": "C",
    "category": "IMG-R",
    "owner": "CONAE",
    "state": "AR"
   },
   "omm": {
    "OBJECT_NAME": "SAOCOM 1B",
    "OBJECT_ID": "2020-059A",
    "EPOCH": "2026-06-26T22:57:00.705888",
    "MEAN_MOTION": 14.82145864,
    "ECCENTRICITY": 0.00015595,
    "INCLINATION": 97.8887,
    "RA_OF_ASC_NODE": 3.6579,
    "ARG_OF_PERICENTER": 89.7654,
    "MEAN_ANOMALY": 270.3738,
    "EPHEMERIS_TYPE": 0,
    "CLASSIFICATION_TYPE": "U",
    "NORAD_CAT_ID": 46265,
    "ELEMENT_SET_NO": 999,
    "REV_AT_EPOCH": 31493,
    "BSTAR": 0.000055312348,
    "MEAN_MOTION_DOT": 0.00000388,
    "MEAN_MOTION_DDOT": 0
   }
  },
  {
   "norad": 31797,
   "name": "SAR-LUPE 2",
   "intl": "2007-030A",
   "group": "sar",
   "gcat": {
    "class": "D",
    "category": "IMG-R",
    "owner": "BWB",
    "state": "D"
   },
   "omm": {
    "OBJECT_NAME": "SAR-LUPE 2",
    "OBJECT_ID": "2007-030A",
    "EPOCH": "2026-06-26T23:03:28.266912",
    "MEAN_MOTION": 15.51593951,
    "ECCENTRICITY": 0.00024904,
    "INCLINATION": 98.1046,
    "RA_OF_ASC_NODE": 283.6146,
    "ARG_OF_PERICENTER": 181.7242,
    "MEAN_ANOMALY": 178.4,
    "EPHEMERIS_TYPE": 0,
    "CLASSIFICATION_TYPE": "U",
    "NORAD_CAT_ID": 31797,
    "ELEMENT_SET_NO": 999,
    "REV_AT_EPOCH": 5845,
    "BSTAR": 0.00031940069,
    "MEAN_MOTION_DOT": 0.00018848,
    "MEAN_MOTION_DDOT": 0
   }
  },
  {
   "norad": 39086,
   "name": "SARAL",
   "intl": "2013-009A",
   "group": "resource",
   "gcat": {
    "class": "C",
    "category": "SCI",
    "owner": "ISRO/CNES",
    "state": "IN"
   },
   "omm": {
    "OBJECT_NAME": "SARAL",
    "OBJECT_ID": "2013-009A",
    "EPOCH": "2026-06-26T22:57:52.966656",
    "MEAN_MOTION": 14.32858184,
    "ECCENTRICITY": 0.00007166,
    "INCLINATION": 98.5557,
    "RA_OF_ASC_NODE": 4.4003,
    "ARG_OF_PERICENTER": 230.2881,
    "MEAN_ANOMALY": 129.824,
    "EPHEMERIS_TYPE": 0,
    "CLASSIFICATION_TYPE": "U",
    "NORAD_CAT_ID": 39086,
    "ELEMENT_SET_NO": 999,
    "REV_AT_EPOCH": 69700,
    "BSTAR": 0.000045590133,
    "MEAN_MOTION_DOT": 8.1e-7,
    "MEAN_MOTION_DDOT": 0
   }
  },
  {
   "norad": 43831,
   "name": "SAUDISAT 5A",
   "intl": "2018-102A",
   "group": "resource",
   "gcat": {
    "class": "C",
    "category": "TECH",
    "owner": "KACST",
    "state": "SA"
   },
   "omm": {
    "OBJECT_NAME": "SAUDISAT 5A",
    "OBJECT_ID": "2018-102A",
    "EPOCH": "2026-06-26T23:41:45.107232",
    "MEAN_MOTION": 15.2814534,
    "ECCENTRICITY": 0.00113272,
    "INCLINATION": 97.307,
    "RA_OF_ASC_NODE": 239.3794,
    "ARG_OF_PERICENTER": 99.3793,
    "MEAN_ANOMALY": 260.8728,
    "EPHEMERIS_TYPE": 0,
    "CLASSIFICATION_TYPE": "U",
    "NORAD_CAT_ID": 43831,
    "ELEMENT_SET_NO": 999,
    "REV_AT_EPOCH": 41717,
    "BSTAR": 0.00022648396,
    "MEAN_MOTION_DOT": 0.00006151,
    "MEAN_MOTION_DDOT": 0
   }
  }
 ]
}
